format  = 'OEF2.0'       ! file format
rectype = 'ML'           ! record type (1L/ML)
refsys  = ECLM J2000     ! default reference system
END_OF_HEADER
2018CW2
! Keplerian elements: a, e, i, long. node, arg. peric., mean anomaly
 KEP   7.5990691020318712E-01  4.2248089257639615E-01   5.0969696330679 331.9017582636102 327.7148677520559  1.2288252203501138E+02
 MJD     61000.000000000 TDT
 MAG  25.609  0.150
! Non-gravitational parameters: model used, number of model parameters, dimension, list of solve for parameters to be currently determined
 LSP   1  2    7    2
! Vector of dynamical parameters
! Area-to-mass ratio [m^2/t], Yarkovsky parameter [1E-10 au/day^2]
 NGR   0.00000000000000E+00 -4.93356297454591E-03
! PERIHELION   4.3886076050557327E-01
! APHELION   1.0809530599008008E+00
! ANODE  -5.5166105631115336E-01
! DNODE  -1.8639165512752361E-02
! MOID   4.5917973564021742E-03
! PERIOD   2.4195746043419240E+02
! PHA F
! VINFTY     9.8821185004371
! U_PAR 1.2
! ORB_TYPE Aten  
! SNR A2    20.56
! da/dt [1E-4 au/My] -2.9255428E+02  +/-   1.4229689E+01
! RMS    1.07072E-08   2.54649E-07   7.30244E-06   1.09716E-05   2.23413E-05   3.26264E-05   2.39967E-04
 COV   1.146451441757825E-16  2.315356005714664E-15  1.782585590648677E-14
 COV   9.676416454387528E-14 -2.209480544808991E-13  1.429021242171899E-13
 COV   2.406795615902248E-12  6.484607955780287E-14  9.895737146715195E-13
 COV   1.848596958976054E-12 -5.236946490500013E-12  6.856550843110739E-12
 COV   4.999456087612127E-11  5.332557492587022E-11 -1.638624185339384E-11
 COV  -3.318643197260966E-11  1.713713448487672E-10  6.599075604923682E-10
 COV   1.203761680300190E-10 -2.210019995935312E-10  7.807579221518544E-11
 COV   1.582101326193770E-09  4.991315562290413E-10 -4.249531886552890E-10
 COV  -4.232869026340094E-09  1.064484265904526E-09  3.619933608641233E-09
 COV   5.758415105630566E-08
 COR   1.000000000000000E+00  8.491767250943109E-01  2.279842188362765E-01
 COR   8.236950608161767E-01 -9.236444723638471E-01  4.090639699881624E-01
 COR   9.367202201215574E-01  1.000000000000000E+00  5.321554512519978E-01
 COR   6.616527391893462E-01 -9.205105283917033E-01  8.252664979664562E-01
 COR   8.181433626964632E-01  9.999999999999998E-01 -2.045226118497670E-01
 COR  -2.034160771562796E-01  7.192846767124841E-01  3.765857190013216E-01
 COR   1.000000000000000E+00 -9.016094025025565E-01  2.181104728314058E-01
 COR   6.009143195606833E-01  1.000000000000000E+00 -5.829938255000492E-01
 COR  -7.895430818904131E-01  9.999999999999999E-01  4.623591938924395E-01
 COR   9.999999999999999E-01
 